[{"OBJECT_NAME":"FENGYUN 3C","OBJECT_ID":"2013-052A","EPOCH":"2026-03-09T23:00:17.582976","MEAN_MOTION":14.15729116,"ECCENTRICITY":0.00138136,"INCLINATION":98.4893,"RA_OF_ASC_NODE":47.4396,"ARG_OF_PERICENTER":312.3692,"MEAN_ANOMALY":47.6312,"EPHEMERIS_TYPE":0,"CLASSIFICATION_TYPE":"U","NORAD_CAT_ID":39260,"ELEMENT_SET_NO":999,"REV_AT_EPOCH":64452,"BSTAR":0.00010509622,"MEAN_MOTION_DOT":1.65e-6,"MEAN_MOTION_DDOT":0},{"OBJECT_NAME":"SL-16 DEB","OBJECT_ID":"1992-093DP","EPOCH":"2026-03-09T20:25:34.196736","MEAN_MOTION":14.00574228,"ECCENTRICITY":0.00935753,"INCLINATION":71.1821,"RA_OF_ASC_NODE":232.273,"ARG_OF_PERICENTER":223.6548,"MEAN_ANOMALY":260.1764,"EPHEMERIS_TYPE":0,"CLASSIFICATION_TYPE":"U","NORAD_CAT_ID":22422,"ELEMENT_SET_NO":999,"REV_AT_EPOCH":69048,"BSTAR":0.00036612229,"MEAN_MOTION_DOT":5.2e-6,"MEAN_MOTION_DDOT":0}]
